STARLINK-1746
1 46588U 20070BJ  26061.16668981  .00067243  00000+0  54003-3 0  9996
2 46588  53.0426 152.2833 0002192 131.1378 149.5311 15.70382427  5979
STARLINK-2095
1 47679U 21012BM  26061.16668981  .00214551  00000+0  16821-2 0  9996
2 47679  53.0280  24.5909 0006478  94.9458  84.2487 15.70369795  5882
